start=new Date('2022-10-12T00:00:00.000Z').valueOf();
sats=[{"MEAN_MOTION":"15.06394973","REV_AT_EPOCH":"10444","OBJECT_ID":"2020-088AM","ECCENTRICITY":"0.00013580","SITE":"AFETR","FILE":"3603935","LAUNCH_DATE":"2020-11-25","PERIAPSIS":"546.289","APOAPSIS":"548.169","MEAN_ELEMENT_THEORY":"SGP4","SEMIMAJOR_AXIS":"6925.364","MEAN_MOTION_DDOT":"0.0000000000000","MEAN_MOTION_DOT":"0.00000421","TIME_SYSTEM":"UTC","TLE_LINE1":"1 47157U 20088AM  22284.71858885  .00000421  00000-0  47136-4 0  9992","GP_ID":"214789948","DECAY_DATE":null,"EPOCH":"2022-10-11T17:14:46.076640","RCS_SIZE":"LARGE","COUNTRY_CODE":"US","EPHEMERIS_TYPE":"0","TLE_LINE2":"2 47157  53.0540 130.5109 0001358 112.5858 247.5275 15.06394973104441","INCLINATION":"53.0540","OBJECT_NAME":"STARLINK-1871","RA_OF_ASC_NODE":"130.5109","BSTAR":"0.00004713600000","PERIOD":"95.592","CENTER_NAME":"EARTH","REF_FRAME":"TEME","CLASSIFICATION_TYPE":"U","ARG_OF_PERICENTER":"112.5858","ELEMENT_SET_NO":"999","NORAD_CAT_ID":"47157","OBJECT_TYPE":"PAYLOAD","MEAN_ANOMALY":"247.5275"},{"REF_FRAME":"TEME","CENTER_NAME":"EARTH","CLASSIFICATION_TYPE":"U","ARG_OF_PERICENTER":"98.0861","ELEMENT_SET_NO":"999","NORAD_CAT_ID":"47158","OBJECT_TYPE":"PAYLOAD","MEAN_ANOMALY":"262.0301","EPOCH":"2022-10-11T16:12:24.747552","RCS_SIZE":"LARGE","COUNTRY_CODE":"US","EPHEMERIS_TYPE":"0","TLE_LINE2":"2 47158  53.0541 120.7143 0001523  98.0861 262.0301 15.06394630104574","INCLINATION":"53.0541","OBJECT_NAME":"STARLINK-1873","RA_OF_ASC_NODE":"120.7143","BSTAR":"0.00014788000000","PERIOD":"95.592","MEAN_ELEMENT_THEORY":"SGP4","SEMIMAJOR_AXIS":"6925.365","MEAN_MOTION_DDOT":"0.0000000000000","TIME_SYSTEM":"UTC","MEAN_MOTION_DOT":"0.00001922","GP_ID":"214789939","TLE_LINE1":"1 47158U 20088AN  22284.67528643  .00001922  00000-0  14788-3 0  9997","DECAY_DATE":null,"REV_AT_EPOCH":"10457","OBJECT_ID":"2020-088AN","MEAN_MOTION":"15.06394630","ECCENTRICITY":"0.00015230","SITE":"AFETR","FILE":"3603935","LAUNCH_DATE":"2020-11-25","PERIAPSIS":"546.175","APOAPSIS":"548.285"},{"APOAPSIS":"548.165","LAUNCH_DATE":"2020-11-25","PERIAPSIS":"546.271","FILE":"3604484","SITE":"AFETR","ECCENTRICITY":"0.00013670","REV_AT_EPOCH":"10435","OBJECT_ID":"2020-088AR","MEAN_MOTION":"15.06398575","DECAY_DATE":null,"GP_ID":"214821422","TLE_LINE1":"1 47161U 20088AR  22284.84115028 -.00000759  00000-0 -32065-4 0  9997","MEAN_MOTION_DOT":"-0.00000759","TIME_SYSTEM":"UTC","MEAN_MOTION_DDOT":"0.0000000000000","SEMIMAJOR_AXIS":"6925.353","MEAN_ELEMENT_THEORY":"SGP4","PERIOD":"95.592","BSTAR":"-0.00003206500000","RA_OF_ASC_NODE":"119.9612","OBJECT_NAME":"STARLINK-1876","INCLINATION":"53.0540","EPHEMERIS_TYPE":"0","TLE_LINE2":"2 47161  53.0540 119.9612 0001367 102.5546 257.5596 15.06398575104358","COUNTRY_CODE":"US","RCS_SIZE":"LARGE","EPOCH":"2022-10-11T20:11:15.384192","MEAN_ANOMALY":"257.5596","OBJECT_TYPE":"PAYLOAD","NORAD_CAT_ID":"47161","ELEMENT_SET_NO":"999","ARG_OF_PERICENTER":"102.5546","CLASSIFICATION_TYPE":"U","REF_FRAME":"TEME","CENTER_NAME":"EARTH"},{"EPOCH":"2022-10-11T13:42:28.344096","RCS_SIZE":"LARGE","OBJECT_NAME":"STARLINK-1877","RA_OF_ASC_NODE":"131.1847","BSTAR":"-0.00014051000000","PERIOD":"95.592","COUNTRY_CODE":"US","EPHEMERIS_TYPE":"0","TLE_LINE2":"2 47162  53.0542 131.1847 0001418 107.0522 253.0622 15.06397658104428","INCLINATION":"53.0542","ARG_OF_PERICENTER":"107.0522","ELEMENT_SET_NO":"999","NORAD_CAT_ID":"47162","CENTER_NAME":"EARTH","REF_FRAME":"TEME","CLASSIFICATION_TYPE":"U","MEAN_ANOMALY":"253.0622","OBJECT_TYPE":"PAYLOAD","FILE":"3603936","PERIAPSIS":"546.239","LAUNCH_DATE":"2020-11-25","APOAPSIS":"548.203","OBJECT_ID":"2020-088AS","MEAN_MOTION":"15.06397658","REV_AT_EPOCH":"10442","ECCENTRICITY":"0.00014180","SITE":"AFETR","MEAN_MOTION_DDOT":"0.0000000000000","MEAN_ELEMENT_THEORY":"SGP4","SEMIMAJOR_AXIS":"6925.356","TLE_LINE1":"1 47162U 20088AS  22284.57116139 -.00002374  00000-0 -14051-3 0  9991","GP_ID":"214790458","DECAY_DATE":null,"TIME_SYSTEM":"UTC","MEAN_MOTION_DOT":"-0.00002374"},{"ELEMENT_SET_NO":"999","NORAD_CAT_ID":"47163","ARG_OF_PERICENTER":"132.9693","REF_FRAME":"TEME","CENTER_NAME":"EARTH","CLASSIFICATION_TYPE":"U","MEAN_ANOMALY":"227.1431","OBJECT_TYPE":"PAYLOAD","RCS_SIZE":"LARGE","EPOCH":"2022-10-11T17:39:59.634432","BSTAR":"-0.00016289000000","PERIOD":"95.593","OBJECT_NAME":"STARLINK-1878","RA_OF_ASC_NODE":"140.4321","TLE_LINE2":"2 47163  53.0557 140.4321 0001609 132.9693 227.1431 15.06386769104053","EPHEMERIS_TYPE":"0","INCLINATION":"53.0557","COUNTRY_CODE":"US","MEAN_MOTION_DDOT":"0.0000000000000","SEMIMAJOR_AXIS":"6925.389","MEAN_ELEMENT_THEORY":"SGP4","DECAY_DATE":null,"TLE_LINE1":"1 47163U 20088AT  22284.73610688 -.00002706  00000-0 -16289-3 0  9992","GP_ID":"214822424","TIME_SYSTEM":"UTC","MEAN_MOTION_DOT":"-0.00002706","APOAPSIS":"548.368","LAUNCH_DATE":"2020-11-25","PERIAPSIS":"546.140","FILE":"3604484","ECCENTRICITY":"0.00016090","SITE":"AFETR","OBJECT_ID":"2020-088AT","MEAN_MOTION":"15.06386769","REV_AT_EPOCH":"10405"},{"MEAN_MOTION_DDOT":"0.0000000000000","SEMIMAJOR_AXIS":"6925.369","MEAN_ELEMENT_THEORY":"SGP4","DECAY_DATE":null,"TLE_LINE1":"1 47164U 20088AU  22284.65779092  .00003235  00000-0  23602-3 0  9992","GP_ID":"214821172","MEAN_MOTION_DOT":"0.00003235","TIME_SYSTEM":"UTC","APOAPSIS":"548.176","LAUNCH_DATE":"2020-11-25","PERIAPSIS":"546.291","FILE":"3604484","ECCENTRICITY":"0.00013610","SITE":"AFETR","OBJECT_ID":"2020-088AU","MEAN_MOTION":"15.06393415","REV_AT_EPOCH":"10446","ELEMENT_SET_NO":"999","NORAD_CAT_ID":"47164","ARG_OF_PERICENTER":"126.7428","CENTER_NAME":"EARTH","REF_FRAME":"TEME","CLASSIFICATION_TYPE":"U","MEAN_ANOMALY":"233.3686","OBJECT_TYPE":"PAYLOAD","RCS_SIZE":"LARGE","EPOCH":"2022-10-11T15:47:13.135488","BSTAR":"0.00023602000000","PERIOD":"95.593","OBJECT_NAME":"STARLINK-1879","RA_OF_ASC_NODE":"110.7845","TLE_LINE2":"2 47164  53.0533 110.7845 0001361 126.7428 233.3686 15.06393415104463","EPHEMERIS_TYPE":"0","INCLINATION":"53.0533","COUNTRY_CODE":"US"},{"TIME_SYSTEM":"UTC","MEAN_MOTION_DOT":"-0.00000571","DECAY_DATE":null,"GP_ID":"214781951","TLE_LINE1":"1 47165U 20088AV  22283.99982819 -.00000571  00000-0 -19433-4 0  9992","SEMIMAJOR_AXIS":"6925.350","MEAN_ELEMENT_THEORY":"SGP4","MEAN_MOTION_DDOT":"0.0000000000000","SITE":"AFETR","ECCENTRICITY":"0.00014240","OBJECT_ID":"2020-088AV","MEAN_MOTION":"15.06399465","REV_AT_EPOCH":"10408","LAUNCH_DATE":"2020-11-25","PERIAPSIS":"546.229","APOAPSIS":"548.201","FILE":"3603543","OBJECT_TYPE":"PAYLOAD","MEAN_ANOMALY":"266.7356","CLASSIFICATION_TYPE":"U","REF_FRAME":"TEME","CENTER_NAME":"EARTH","NORAD_CAT_ID":"47165","ELEMENT_SET_NO":"999","ARG_OF_PERICENTER":"93.3796","INCLINATION":"53.0554","EPHEMERIS_TYPE":"0","TLE_LINE2":"2 47165  53.0554 133.7310 0001424  93.3796 266.7356 15.06399465104089","COUNTRY_CODE":"US","PERIOD":"95.592","BSTAR":"-0.00001943300000","RA_OF_ASC_NODE":"133.7310","OBJECT_NAME":"STARLINK-1880","RCS_SIZE":"LARGE","EPOCH":"2022-10-10T23:59:45.155616"},{"ARG_OF_PERICENTER":"337.2499","ELEMENT_SET_NO":"999","NORAD_CAT_ID":"47166","REF_FRAME":"TEME","CENTER_NAME":"EARTH","CLASSIFICATION_TYPE":"U","MEAN_ANOMALY":"22.8393","OBJECT_TYPE":"PAYLOAD","EPOCH":"2022-10-11T10:41:06.676224","RCS_SIZE":"LARGE","OBJECT_NAME":"STARLINK-1881","RA_OF_ASC_NODE":"6.5527","BSTAR":"0.00091601000000","PERIOD":"92.649","COUNTRY_CODE":"US","EPHEMERIS_TYPE":"0","TLE_LINE2":"2 47166  53.0484   6.5527 0002662 337.2499  22.8393 15.54259539106178","INCLINATION":"53.0484","MEAN_MOTION_DDOT":"0.0000000000000","MEAN_ELEMENT_THEORY":"SGP4","SEMIMAJOR_AXIS":"6782.443","GP_ID":"214790465","TLE_LINE1":"1 47166U 20088AW  22284.44521616  .00060843  00000-0  91601-3 0  9990","DECAY_DATE":null,"TIME_SYSTEM":"UTC","MEAN_MOTION_DOT":"0.00060843","FILE":"3603937","LAUNCH_DATE":"2020-11-25","PERIAPSIS":"402.502","APOAPSIS":"406.113","MEAN_MOTION":"15.54259539","OBJECT_ID":"2020-088AW","REV_AT_EPOCH":"10617","ECCENTRICITY":"0.00026620","SITE":"AFETR"},{"GP_ID":"214821925","TLE_LINE1":"1 47167U 20088AX  22284.84760780 -.00001397  00000-0 -74953-4 0  9995","DECAY_DATE":null,"MEAN_MOTION_DOT":"-0.00001397","TIME_SYSTEM":"UTC","MEAN_MOTION_DDOT":"0.0000000000000","MEAN_ELEMENT_THEORY":"SGP4","SEMIMAJOR_AXIS":"6925.375","FILE":"3604484","PERIAPSIS":"546.167","LAUNCH_DATE":"2020-11-25","APOAPSIS":"548.314","MEAN_MOTION":"15.06391314","OBJECT_ID":"2020-088AX","REV_AT_EPOCH":"10421","ECCENTRICITY":"0.00015500","SITE":"AFETR","MEAN_ANOMALY":"255.4094","OBJECT_TYPE":"PAYLOAD","ARG_OF_PERICENTER":"104.7067","ELEMENT_SET_NO":"999","NORAD_CAT_ID":"47167","CENTER_NAME":"EARTH","REF_FRAME":"TEME","CLASSIFICATION_TYPE":"U","OBJECT_NAME":"STARLINK-1884","RA_OF_ASC_NODE":"129.9187","BSTAR":"-0.00007495300000","PERIOD":"95.593","COUNTRY_CODE":"US","TLE_LINE2":"2 47167  53.0536 129.9187 0001550 104.7067 255.4094 15.06391314104212","EPHEMERIS_TYPE":"0","INCLINATION":"53.0536","EPOCH":"2022-10-11T20:20:33.313920","RCS_SIZE":"LARGE"},{"TLE_LINE1":"1 47170U 20088BA  22284.70017380 -.00000087  00000-0  13050-4 0  9990","GP_ID":"214820673","DECAY_DATE":null,"MEAN_MOTION_DOT":"-0.00000087","TIME_SYSTEM":"UTC","MEAN_MOTION_DDOT":"0.0000000000000","MEAN_ELEMENT_THEORY":"SGP4","SEMIMAJOR_AXIS":"6925.396","FILE":"3604484","LAUNCH_DATE":"2020-11-25","PERIAPSIS":"546.310","APOAPSIS":"548.213","OBJECT_ID":"2020-088BA","REV_AT_EPOCH":"10419","MEAN_MOTION":"15.06384370","SITE":"AFETR","ECCENTRICITY":"0.00013740","MEAN_ANOMALY":"262.7073","OBJECT_TYPE":"PAYLOAD","ARG_OF_PERICENTER":"97.4072","NORAD_CAT_ID":"47170","ELEMENT_SET_NO":"999","CLASSIFICATION_TYPE":"U","CENTER_NAME":"EARTH","REF_FRAME":"TEME","RA_OF_ASC_NODE":"130.5925","OBJECT_NAME":"STARLINK-1887","PERIOD":"95.593","BSTAR":"0.00001305000000","COUNTRY_CODE":"US","INCLINATION":"53.0549","EPHEMERIS_TYPE":"0","TLE_LINE2":"2 47170  53.0549 130.5925 0001374  97.4072 262.7073 15.06384370104195","EPOCH":"2022-10-11T16:48:15.016320","RCS_SIZE":"LARGE"}];
